[{"OBJECT_NAME":"STARLINK-5161","OBJECT_ID":"2022-141G","EPOCH":"2026-03-09T05:10:28.257312","MEAN_MOTION":15.08845421,"ECCENTRICITY":0.00013705,"INCLINATION":53.2184,"RA_OF_ASC_NODE":6.4168,"ARG_OF_PERICENTER":91.0505,"MEAN_ANOMALY":269.0644,"EPHEMERIS_TYPE":0,"CLASSIFICATION_TYPE":"U","NORAD_CAT_ID":54163,"ELEMENT_SET_NO":999,"REV_AT_EPOCH":18578,"BSTAR":3.7041263e-5,"MEAN_MOTION_DOT":3.02e-6,"MEAN_MOTION_DDOT":0},{"OBJECT_NAME":"DELTA 1 DEB","OBJECT_ID":"1977-065EC","EPOCH":"2026-03-09T02:08:40.996032","MEAN_MOTION":13.78682297,"ECCENTRICITY":0.05923881,"INCLINATION":29.1022,"RA_OF_ASC_NODE":69.0593,"ARG_OF_PERICENTER":230.0658,"MEAN_ANOMALY":124.6392,"EPHEMERIS_TYPE":0,"CLASSIFICATION_TYPE":"U","NORAD_CAT_ID":10470,"ELEMENT_SET_NO":999,"REV_AT_EPOCH":39795,"BSTAR":0.00059129389,"MEAN_MOTION_DOT":2.469e-5,"MEAN_MOTION_DDOT":0}]
